NOAA 17                 
1 27453U 02032A   26064.25592485  .00000344  00000+0  16247-3 0  9999
2 27453  98.8534  28.8388 0010667 295.8892  64.1187 14.26186261232179
NOAA 18                 
1 28654U 05018A   26064.22451180  .00000109  00000+0  80884-4 0  9991
2 28654  98.8163 145.3943 0015344  87.2892 273.0037 14.13709907 71623
NOAA 19                 
1 33591U 09005A   26064.20491129  .00000082  00000+0  67385-4 0  9993
2 33591  98.9615 134.9683 0013064 328.0949  31.9431 14.13455863879795
SUOMI NPP               
1 37849U 11061A   26064.30269232  .00000152  00000+0  93115-4 0  9995
2 37849  98.7866   5.9403 0000397 272.7662  87.3468 14.19542164743703
NOAA 20 (JPSS-1)        
1 43013U 17073A   26064.24685596  .00000118  00000+0  76800-4 0  9996
2 43013  98.7688   4.6783 0001011 143.4453 216.6792 14.19534754429724
NOAA 21 (JPSS-2)        
1 54234U 22150A   26064.28161282  .00000126  00000+0  80448-4 0  9992
2 54234  98.7551   4.5981 0002565 114.3891 245.7553 14.19550784171809
