[{"OBJECT_NAME":"NOAA 17","OBJECT_ID":"2002-032A","EPOCH":"2026-03-05T06:08:31.907040","MEAN_MOTION":14.26186261,"ECCENTRICITY":0.00106677,"INCLINATION":98.8534,"RA_OF_ASC_NODE":28.8388,"ARG_OF_PERICENTER":295.8892,"MEAN_ANOMALY":64.1187,"EPHEMERIS_TYPE":0,"CLASSIFICATION_TYPE":"U","NORAD_CAT_ID":27453,"ELEMENT_SET_NO":999,"REV_AT_EPOCH":23217,"BSTAR":0.00016247303,"MEAN_MOTION_DOT":3.44e-6,"MEAN_MOTION_DDOT":0},{"OBJECT_NAME":"NOAA 18","OBJECT_ID":"2005-018A","EPOCH":"2026-03-05T05:23:17.819520","MEAN_MOTION":14.13709907,"ECCENTRICITY":0.00153441,"INCLINATION":98.8163,"RA_OF_ASC_NODE":145.3943,"ARG_OF_PERICENTER":87.2892,"MEAN_ANOMALY":273.0037,"EPHEMERIS_TYPE":0,"CLASSIFICATION_TYPE":"U","NORAD_CAT_ID":28654,"ELEMENT_SET_NO":999,"REV_AT_EPOCH":7162,"BSTAR":8.0883525e-5,"MEAN_MOTION_DOT":1.09e-6,"MEAN_MOTION_DDOT":0},{"OBJECT_NAME":"NOAA 19","OBJECT_ID":"2009-005A","EPOCH":"2026-03-05T04:55:04.335456","MEAN_MOTION":14.13455863,"ECCENTRICITY":0.00130648,"INCLINATION":98.9615,"RA_OF_ASC_NODE":134.9683,"ARG_OF_PERICENTER":328.0949,"MEAN_ANOMALY":31.9431,"EPHEMERIS_TYPE":0,"CLASSIFICATION_TYPE":"U","NORAD_CAT_ID":33591,"ELEMENT_SET_NO":999,"REV_AT_EPOCH":87979,"BSTAR":6.7384558e-5,"MEAN_MOTION_DOT":8.2e-7,"MEAN_MOTION_DDOT":0},{"OBJECT_NAME":"SUOMI NPP","OBJECT_ID":"2011-061A","EPOCH":"2026-03-05T07:15:52.616448","MEAN_MOTION":14.19542164,"ECCENTRICITY":3.974e-5,"INCLINATION":98.7866,"RA_OF_ASC_NODE":5.9403,"ARG_OF_PERICENTER":272.7662,"MEAN_ANOMALY":87.3468,"EPHEMERIS_TYPE":0,"CLASSIFICATION_TYPE":"U","NORAD_CAT_ID":37849,"ELEMENT_SET_NO":999,"REV_AT_EPOCH":74370,"BSTAR":9.311509e-5,"MEAN_MOTION_DOT":1.52e-6,"MEAN_MOTION_DDOT":0},{"OBJECT_NAME":"NOAA 20 (JPSS-1)","OBJECT_ID":"2017-073A","EPOCH":"2026-03-05T05:55:28.354944","MEAN_MOTION":14.19534754,"ECCENTRICITY":0.00010111,"INCLINATION":98.7688,"RA_OF_ASC_NODE":4.6783,"ARG_OF_PERICENTER":143.4453,"MEAN_ANOMALY":216.6792,"EPHEMERIS_TYPE":0,"CLASSIFICATION_TYPE":"U","NORAD_CAT_ID":43013,"ELEMENT_SET_NO":999,"REV_AT_EPOCH":42972,"BSTAR":7.6800451e-5,"MEAN_MOTION_DOT":1.18e-6,"MEAN_MOTION_DDOT":0},{"OBJECT_NAME":"NOAA 21 (JPSS-2)","OBJECT_ID":"2022-150A","EPOCH":"2026-03-05T06:45:31.347648","MEAN_MOTION":14.19550784,"ECCENTRICITY":0.0002565,"INCLINATION":98.7551,"RA_OF_ASC_NODE":4.5981,"ARG_OF_PERICENTER":114.3891,"MEAN_ANOMALY":245.7553,"EPHEMERIS_TYPE":0,"CLASSIFICATION_TYPE":"U","NORAD_CAT_ID":54234,"ELEMENT_SET_NO":999,"REV_AT_EPOCH":17180,"BSTAR":8.0447676e-5,"MEAN_MOTION_DOT":1.26e-6,"MEAN_MOTION_DDOT":0}]
